{
    "links": {
        "self": "http://www.neowsapp.com/rest/v1/neo/3609752?api_key=iIulBulltgU6a56xZRHN4H3l9WmuAYTsLGpBGhQ2"
    },
    "id": "3609752",
    "neo_reference_id": "3609752",
    "name": "(2012 TR5)",
    "designation": "2012 TR5",
    "nasa_jpl_url": "http://ssd.jpl.nasa.gov/sbdb.cgi?sstr=3609752",
    "absolute_magnitude_h": 25.5,
    "estimated_diameter": {
        "kilometers": {
            "estimated_diameter_min": 0.0211132445,
            "estimated_diameter_max": 0.0472106499
        },
        "meters": {
            "estimated_diameter_min": 21.113244479,
            "estimated_diameter_max": 47.2106498806
        },
        "miles": {
            "estimated_diameter_min": 0.0131191578,
            "estimated_diameter_max": 0.0293353287
        },
        "feet": {
            "estimated_diameter_min": 69.2691770164,
            "estimated_diameter_max": 154.8905885541
        }
    },
    "is_potentially_hazardous_asteroid": false,
    "close_approach_data": [
        {
            "close_approach_date": "2010-10-02",
            "close_approach_date_full": "2010-Oct-02 15:50",
            "epoch_date_close_approach": 1286034600000,
            "relative_velocity": {
                "kilometers_per_second": "13.2326657053",
                "kilometers_per_hour": "47637.5965391063",
                "miles_per_hour": "29600.1499162019"
            },
            "miss_distance": {
                "astronomical": "0.1281267817",
                "lunar": "49.8413180813",
                "kilometers": "19167493.632274979",
                "miles": "11910128.2631095502"
            },
            "orbiting_body": "Earth"
        },
        {
            "close_approach_date": "2012-09-25",
            "close_approach_date_full": "2012-Sep-25 01:23",
            "epoch_date_close_approach": 1348536180000,
            "relative_velocity": {
                "kilometers_per_second": "10.7357410445",
                "kilometers_per_hour": "38648.667760231",
                "miles_per_hour": "24014.7791424613"
            },
            "miss_distance": {
                "astronomical": "0.0569951277",
                "lunar": "22.1711046753",
                "kilometers": "8526349.704297999",
                "miles": "5298028.0334264262"
            },
            "orbiting_body": "Earth"
        }
    ],
    "orbital_data": {
        "orbit_id": "5",
        "orbit_determination_date": "2019-07-17 06:09:44",
        "first_observation_date": "2012-10-04",
        "last_observation_date": "2012-10-09",
        "data_arc_in_days": 5,
        "observations_used": 22,
        "orbit_uncertainty": "8",
        "minimum_orbit_intersection": ".0566362",
        "jupiter_tisserand_invariant": "4.285",
        "epoch_osculation": "2456206.5",
        "eccentricity": ".3863917530466477",
        "semi_major_axis": "1.57907259202426",
        "inclination": "13.11097000962707",
        "ascending_node_longitude": "191.4110169664214",
        "orbital_period": "724.7722724086233",
        "perihelion_distance": ".9689319650040922",
        "perihelion_argument": "128.2533093699614",
        "aphelion_distance": "2.189213219044427",
        "perihelion_time": "2456159.293788957213",
        "mean_anomaly": "23.44769056758569",
        "mean_motion": ".4967077435283475",
        "equinox": "J2000",
        "orbit_class": {
            "orbit_class_type": "APO",
            "orbit_class_description": "Near-Earth asteroid orbits which cross the Earth’s orbit similar to that of 1862 Apollo",
            "orbit_class_range": "a (semi-major axis) > 1.0 AU; q (perihelion) < 1.017 AU"
        }
    },
    "is_sentry_object": false
}